IRIDIUM 36              
1 24967U 97056C   24228.52526847  .00001465  00000+0  48855-3 0  9990
2 24967  86.3968 301.3847 0002054  92.5655 267.5778 14.36956483408316
IRIDIUM 39              
1 25042U 97069D   24228.57426320  .00002551  00000+0  67824-3 0  9993
2 25042  86.3962 342.1353 0016334 243.3052 116.6480 14.48183900404716
IRIDIUM 38              
1 25043U 97069E   24228.65348542  .00001876  00000+0  62143-3 0  9990
2 25043  86.3999   1.6734 0003225  60.6032 299.5487 14.37417361402052
IRIDIUM 42              
1 25077U 97077A   24228.70730036  .00001723  00000+0  59030-3 0  9997
2 25077  86.3996   7.4397 0002597  80.9324 279.2166 14.35701986397357
IRIDIUM 44              
1 25078U 97077B   24228.57840845  .00001689  00000+0  53529-3 0  9991
2 25078  86.4000 350.2487 0001361  36.4488 323.6803 14.39551317399729
IRIDIUM 45              
1 25104U 97082A   24228.62101642  .00038829  00000+0  20426-2 0  9993
2 25104  86.3741 194.3156 0153489  24.3252 336.5127 15.05785334406042
IRIDIUM 24              
1 25105U 97082B   24228.87079038  .00001841  00000+0  56255-3 0  9998
2 25105  86.3920 209.6081 0012019  18.3436 341.8195 14.41344528399476
IRIDIUM 51              
1 25262U 98018A   24228.38478964  .00042285  00000+0  18181-2 0  9991
2 25262  86.3957 204.0456 0134325 325.3633  33.8910 15.14575274400369
